NORAD_CAT_ID,OBJECT_NAME,OBJECT_TYPE,EPOCH,MEAN_MOTION,ECCENTRICITY,INCLINATION,RA_OF_ASC_NODE,ARG_OF_PERICENTER,MEAN_ANOMALY,BSTAR,MEAN_MOTION_DOT,MEAN_MOTION_DDOT,TLE_LINE0,TLE_LINE1,TLE_LINE2,SEMIMAJOR_AXIS,PERIOD,APOGEE,PERIGEE,DECAYED
52124.0,STARLINK-3684,PAYLOAD,2022-04-10 20:00:01,15.73297619,0.0001178,53.2178,32.0305,118.0913,303.8775,-0.00058564,-0.00082351,0.0,0 STARLINK-3684,1 52124U 22029AN  22100.83334491 -.00082351  00000-0 -58564-3 0  9991,2 52124  53.2178  32.0305 0001178 118.0913 303.8775 15.73297619  4822,6727.6169999999975,91.528,350.274,348.689,0.0
52124.0,STARLINK-3684,PAYLOAD,2022-04-10 22:00:00,15.73299317,0.0001158,53.2179,31.6186,116.9153,57.3082,-0.00083663,-0.0011691,0.0,0 STARLINK-3684,1 52124U 22029AN  22100.91667824 -.00116910  00000-0 -83663-3 0  9996,2 52124  53.2179  31.6186 0001158 116.9153  57.3082 15.73299317  3712,6727.611999999999,91.527,350.256,348.6980000000001,0.0
52124.0,STARLINK-3684,PAYLOAD,2022-04-11 04:00:01,15.73175155,0.0001047,53.2179,30.3829,103.8928,47.1406,0.00015204,0.00020748,0.0,0 STARLINK-3684,1 52124U 22029AN  22101.16668981  .00020748  00000-0  15204-3 0  9996,2 52124  53.2179  30.3829 0001047 103.8928  47.1406 15.73175155  4872,6727.965999999999,91.535,350.535,349.12699999999984,0.0
52124.0,STARLINK-3684,PAYLOAD,2022-04-11 14:00:01,15.73220848,0.0001165,53.2178,28.3194,113.5393,238.5516,-0.00065667,-0.00091859,0.0,0 STARLINK-3684,1 52124U 22029AN  22101.58334491 -.00091859  00000-0 -65667-3 0  9999,2 52124  53.2178  28.3194 0001165 113.5393 238.5516 15.73220848  3707,6727.8359999999975,91.532,350.485,348.917,0.0
52124.0,STARLINK-3684,PAYLOAD,2022-04-11 20:00:01,15.73160752,0.0001512,53.2179,27.0823,111.4242,217.3599,-0.00039521,-0.00055628,0.0,0 STARLINK-3684,1 52124U 22029AN  22101.83334491 -.00055628  00000-0 -39521-3 0  9991,2 52124  53.2179  27.0823 0001512 111.4242 217.3599 15.73160752  4972,6728.007,91.535,350.889,348.855,0.0
52124.0,STARLINK-3684,PAYLOAD,2022-04-11 22:00:00,15.73134737,0.0001501999999999,53.2178,26.6705,108.8277,332.1802,-0.00012401,-0.00017938,0.0,0 STARLINK-3684,1 52124U 22029AN  22101.91667824 -.00017938  00000-0 -12401-3 0  9999,2 52124  53.2178  26.6705 0001502 108.8277 332.1802 15.73134737  3709,6728.081,91.537,350.957,348.936,0.0
52124.0,STARLINK-3684,PAYLOAD,2022-04-12 12:00:00,15.73161481,0.0001483,53.2174,23.7842,109.5745,36.8954,0.00028263,0.00039165,0.0,0 STARLINK-3684,1 52124U 22029AN  22102.50001157  .00039165  00000-0  28263-3 0  9993,2 52124  53.2174  23.7842 0001483 109.5745  36.8954 15.73161481  5086,6728.005,91.535,350.86800000000005,348.872,0.0
52124.0,STARLINK-3684,PAYLOAD,2022-04-12 14:00:01,15.73146693,0.0001498,53.2175,23.3714,112.1549,146.543,0.00064835,0.00091156,0.0,0 STARLINK-3684,1 52124U 22029AN  22102.58334491  .00091156  00000-0  64835-3 0  9994,2 52124  53.2175  23.3714 0001498 112.1549 146.5430 15.73146693  3702,6728.047,91.536,350.92,348.904,0.0
52124.0,STARLINK-3684,PAYLOAD,2022-04-12 22:00:00,15.732164,0.0001504,53.2178,21.7227,111.6836,235.8923,0.00012686,0.00017233,0.0,0 STARLINK-3684,1 52124U 22029AN  22102.91667824  .00017233  00000-0  12686-3 0  9991,2 52124  53.2178  21.7227 0001504 111.6836 235.8923 15.73216400  3698,6727.848000000001,91.532,350.725,348.702,0.0
52124.0,STARLINK-3684,PAYLOAD,2022-04-13 14:00:03,15.73204238,0.0001636999999999,53.2175,18.4167,104.6824,60.8725,7.3432e-06,4.1e-06,0.0,0 STARLINK-3684,1 52124U 22029AN  22103.58336806  .00000410  00000-0  73432-5 0  9995,2 52124  53.2175  18.4167 0001637 104.6824  60.8725 15.73204238  5253,6727.8830000000025,91.533,350.849,348.647,0.0
52124.0,STARLINK-3684,PAYLOAD,2022-04-13 22:00:00,15.73198423,0.0001679,53.2176,16.7686,106.7147,147.6441,8.5902e-05,0.00011451,0.0,0 STARLINK-3684,1 52124U 22029AN  22103.91667824  .00011451  00000-0  85902-4 0  9990,2 52124  53.2176  16.7686 0001679 106.7147 147.6441 15.73198423  3703,6727.9,91.533,350.894,348.635,0.0
52124.0,STARLINK-3684,PAYLOAD,2022-04-14 06:00:00,15.73200453,0.0001164,53.2172,15.1261,107.7483,235.7739,-8.1108e-05,-0.00011986,0.0,0 STARLINK-3684,1 52124U 22029AN  22104.25001157 -.00011986  00000-0 -81108-4 0  9998,2 52124  53.2172  15.1261 0001164 107.7483 235.7739 15.73200453  5353,6727.894,91.533,350.542,348.976,0.0
52124.0,STARLINK-3684,PAYLOAD,2022-04-14 14:00:01,15.73171428,0.0001244,53.2174,13.4746,122.8465,309.5863,8.164299999999999e-06,5.25e-06,0.0,0 STARLINK-3684,1 52124U 22029AN  22104.58334491  .00000525  00000-0  81643-5 0  9994,2 52124  53.2174  13.4746 0001244 122.8465 309.5863 15.73171428  3705,6727.977,91.535,350.67900000000014,349.005,0.0
52124.0,STARLINK-3684,PAYLOAD,2022-04-14 22:00:00,15.73165606,0.0001117,53.2176,11.8263,122.2147,39.114,0.00016956,0.00023207,0.0,0 STARLINK-3684,1 52124U 22029AN  22104.91667824  .00023207  00000-0  16956-3 0  9995,2 52124  53.2176  11.8263 0001117 122.2147  39.1140 15.73165606  3764,6727.993,91.535,350.61,349.107,0.0
52124.0,STARLINK-3684,PAYLOAD,2022-04-15 03:24:57,15.73203922,0.0001189,53.2176,10.7062,113.5373,246.5772,-4.0604e-05,-6.315e-05,0.0,0 STARLINK-3684,1 52124U 22029AN  22105.14233700 -.00006315  00000-0 -40604-4 0  9994,2 52124  53.2176  10.7062 0001189 113.5373 246.5772 15.73203922  5493,6727.884,91.533,350.5490000000001,348.949,0.0
52124.0,STARLINK-3684,PAYLOAD,2022-04-15 14:00:01,15.733123999999998,0.0001125,53.2175,8.5263,126.2565,213.0261,4.6593e-05,5.954e-05,0.0,0 STARLINK-3684,1 52124U 22029AN  22105.58334491  .00005954  00000-0  46593-4 0  9990,2 52124  53.2175   8.5263 0001125 126.2565 213.0261 15.73312400  5555,6727.575,91.527,350.19699999999995,348.68300000000005,0.0
52124.0,STARLINK-3684,PAYLOAD,2022-04-15 22:00:00,15.73296063,0.0001306,53.2174,6.8781,115.5479,312.7649,-0.0007476,-0.00104673,0.0,0 STARLINK-3684,1 52124U 22029AN  22105.91667824 -.00104673  00000-0 -74760-3 0  9992,2 52124  53.2174   6.8781 0001306 115.5479 312.7649 15.73296063  5616,6727.621,91.528,350.365,348.608,0.0
52124.0,STARLINK-3684,PAYLOAD,2022-04-16 04:00:00,15.73217965,0.0001302,53.217,5.6421,108.1962,296.8417,-0.00071764,-0.00100221,0.0,0 STARLINK-3684,1 52124U 22029AN  22106.16667824 -.00100221  00000-0 -71764-3 0  9996,2 52124  53.2170   5.6421 0001302 108.1962 296.8417 15.73217965  5654,6727.844,91.532,350.585,348.833,0.0
52124.0,STARLINK-3684,PAYLOAD,2022-04-16 14:00:01,15.7305182,0.0001392,53.2168,3.5779,122.0972,124.0756,-4.6302e-05,-7.070000000000001e-05,0.0,0 STARLINK-3684,1 52124U 22029AN  22106.58334491 -.00007070  00000-0 -46302-4 0  9992,2 52124  53.2168   3.5779 0001392 122.0972 124.0756 15.73051820  5710,6728.318,91.542,351.119,349.246,0.0
52124.0,STARLINK-3684,PAYLOAD,2022-04-16 22:00:01,15.73057153,0.0001358,53.217,1.9302,116.4619,218.5173,0.001026,0.00144992,0.0,0 STARLINK-3684,1 52124U 22029AN  22106.91668981  .00144992  00000-0  10260-2 0  9998,2 52124  53.2170   1.9302 0001358 116.4619 218.5173 15.73057153  5766,6728.302,91.541,351.081,349.254,0.0
52124.0,STARLINK-3684,PAYLOAD,2022-04-17 04:00:00,15.73121819,0.0001315999999999,53.217,0.6946,109.515,201.9718,0.00073325,0.00103212,0.0,0 STARLINK-3684,1 52124U 22029AN  22107.16667824  .00103212  00000-0  73325-3 0  9993,2 52124  53.2170   0.6946 0001316 109.5150 201.9718 15.73121819  5800,6728.118,91.538,350.869,349.098,0.0
52124.0,STARLINK-3684,PAYLOAD,2022-04-17 14:00:01,15.73138805,0.0001361999999999,53.2168,358.6304,122.4975,30.0963,0.00134,0.00191281,0.0,0 STARLINK-3684,1 52124U 22029AN  22107.58334491  .00191281  00000-0  13400-2 0  9990,2 52124  53.2168 358.6304 0001362 122.4975  30.0963 15.73138805  5874,6728.07,91.537,350.851,349.01800000000014,0.0
52124.0,STARLINK-3684,PAYLOAD,2022-04-17 22:00:00,15.73308009,0.0001246,53.2166,356.9826,116.6215,124.9177,-0.00043595,-0.00061638,0.0,0 STARLINK-3684,1 52124U 22029AN  22107.91667824 -.00061638  00000-0 -43595-3 0  9999,2 52124  53.2166 356.9826 0001246 116.6215 124.9177 15.73308009  3700,6727.587,91.527,350.291,348.61400000000015,0.0
52124.0,STARLINK-3684,PAYLOAD,2022-04-18 06:00:00,15.73311617,0.0001101,53.2159,355.3331,117.7901,212.7706,-0.0006383999999999,-0.0008969,0.0,0 STARLINK-3684,1 52124U 22029AN  22108.25001157 -.00089690  00000-0 -63840-3 0  9991,2 52124  53.2159 355.3331 0001101 117.7901 212.7706 15.73311617  5974,6727.5769999999975,91.527,350.18300000000005,348.701,0.0
52124.0,STARLINK-3684,PAYLOAD,2022-04-18 14:00:01,15.73257102,0.0001257,53.216,353.6814,129.1096,290.4829,-0.00039818,-0.00056265,0.0,0 STARLINK-3684,1 52124U 22029AN  22108.58334491 -.00056265  00000-0 -39818-3 0  9997,2 52124  53.2160 353.6814 0001257 129.1096 290.4829 15.73257102  3703,6727.732,91.53,350.4430000000001,348.75199999999984,0.0
52124.0,STARLINK-3684,PAYLOAD,2022-04-18 22:00:00,15.73174346,0.0001378,53.2161,352.0335,116.1035,32.4531,9.017e-05,0.00012039,0.0,0 STARLINK-3684,1 52124U 22029AN  22108.91667824  .00012039  00000-0  90170-4 0  9991,2 52124  53.2161 352.0335 0001378 116.1035  32.4531 15.73174346  3698,6727.968000000003,91.535,350.76,348.906,0.0
52124.0,STARLINK-3684,PAYLOAD,2022-04-19 06:00:00,15.73225598,0.0001409,53.216,350.3841,113.29,124.1647,-0.00046386,-0.00065288,0.0,0 STARLINK-3684,1 52124U 22029AN  22109.25001157 -.00065288  00000-0 -46386-3 0  9995,2 52124  53.2160 350.3841 0001409 113.2900 124.1647 15.73225598  6139,6727.821999999999,91.532,350.635,348.73900000000015,0.0
52124.0,STARLINK-3684,PAYLOAD,2022-04-19 14:00:01,15.73154659,0.0001594,53.2161,348.7326,119.0001,207.391,0.00073205,0.00103188,0.0,0 STARLINK-3684,1 52124U 22029AN  22109.58334491  .00103188  00000-0  73205-3 0  9991,2 52124  53.2161 348.7326 0001594 119.0001 207.3910 15.73154659  3706,6728.024,91.536,350.962,348.81699999999995,0.0
52124.0,STARLINK-3684,PAYLOAD,2022-04-19 20:00:01,15.73252196,0.0001471,53.216,347.4969,117.841,185.2257,-0.00030281,-0.00042996,0.0,0 STARLINK-3684,1 52124U 22029AN  22109.83334491 -.00042996  00000-0 -30281-3 0  9997,2 52124  53.2160 347.4969 0001471 117.8410 185.2257 15.73252196  6221,6727.746,91.53,350.601,348.622,0.0
